STARLINK-4144           
1 53257U 22086R   26068.61394590 -.00000503  00000+0 -13508-4 0  9999
2 53257  53.2167 194.4603 0001162  98.4624 261.6500 15.08843490201058
LEMUR-2-MARHISYAM       
1 60536U 24149BW  26068.74036894  .00013075  00000+0  82973-3 0  9990
2 60536  97.6912 151.2662 0003578 107.3271 252.8349 15.09015520 85478
